start=new Date('2023-04-22T00:00:00.000Z').valueOf();
sats=[{"TIME_SYSTEM":"UTC","FILE":"3891716","APOAPSIS":"495.731","MEAN_MOTION_DDOT":"0.0000000000000","MEAN_MOTION":"15.24103272","EPOCH":"2023-04-21T22:00:00.999936","NORAD_CAT_ID":"55753","BSTAR":"-0.04198300000000","ELEMENT_SET_NO":"999","SITE":"AFWTR","REF_FRAME":"TEME","MEAN_ANOMALY":"216.0633","RA_OF_ASC_NODE":"19.5741","TLE_LINE2":"2 55753  70.0029  19.5741 0003274 272.0617 216.0633 15.24103272  1305","PERIAPSIS":"491.232","OBJECT_ID":"2023-028N","EPHEMERIS_TYPE":"0","REV_AT_EPOCH":"130","OBJECT_TYPE":"PAYLOAD","OBJECT_NAME":"STARLINK-5617","DECAY_DATE":null,"MEAN_ELEMENT_THEORY":"SGP4","RCS_SIZE":"LARGE","LAUNCH_DATE":"2023-03-03","CENTER_NAME":"EARTH","MEAN_MOTION_DOT":"-0.00946411","PERIOD":"94.482","ECCENTRICITY":"0.00032740","INCLINATION":"70.0029","ARG_OF_PERICENTER":"272.0617","CLASSIFICATION_TYPE":"U","SEMIMAJOR_AXIS":"6871.616","TLE_LINE1":"1 55753U 23028N   23111.91667824 -.00946411  00000-0 -41983-1 0  9994","GP_ID":"230530860","COUNTRY_CODE":"US"},{"MEAN_MOTION":"15.24949226","APOAPSIS":"493.043","FILE":"3891716","MEAN_MOTION_DDOT":"0.0000000000000","TIME_SYSTEM":"UTC","RA_OF_ASC_NODE":"19.5214","MEAN_ANOMALY":"262.2916","REF_FRAME":"TEME","SITE":"AFWTR","NORAD_CAT_ID":"55754","EPOCH":"2023-04-21T22:00:00.999936","ELEMENT_SET_NO":"999","BSTAR":"-0.04046900000000","OBJECT_TYPE":"PAYLOAD","OBJECT_NAME":"STARLINK-5612","DECAY_DATE":null,"MEAN_ELEMENT_THEORY":"SGP4","EPHEMERIS_TYPE":"0","REV_AT_EPOCH":"130","OBJECT_ID":"2023-028P","TLE_LINE2":"2 55754  70.0033  19.5214 0003061 272.8035 262.2916 15.24949226  1306","PERIAPSIS":"488.837","CLASSIFICATION_TYPE":"U","TLE_LINE1":"1 55754U 23028P   23111.91667824 -.00936443  00000-0 -40469-1 0  9997","GP_ID":"230530605","SEMIMAJOR_AXIS":"6869.075","COUNTRY_CODE":"US","ARG_OF_PERICENTER":"272.8035","ECCENTRICITY":"0.00030610","INCLINATION":"70.0033","CENTER_NAME":"EARTH","LAUNCH_DATE":"2023-03-03","PERIOD":"94.429","MEAN_MOTION_DOT":"-0.00936443","RCS_SIZE":"LARGE"},{"PERIOD":"94.536","MEAN_MOTION_DOT":"-0.00935515","LAUNCH_DATE":"2023-03-03","CENTER_NAME":"EARTH","RCS_SIZE":"LARGE","GP_ID":"230531355","TLE_LINE1":"1 55755U 23028Q   23111.91667824 -.00935515  00000-0 -42551-1 0  9991","COUNTRY_CODE":"US","SEMIMAJOR_AXIS":"6874.229","CLASSIFICATION_TYPE":"U","ECCENTRICITY":"0.00032450","ARG_OF_PERICENTER":"269.0460","INCLINATION":"70.0028","OBJECT_ID":"2023-028Q","PERIAPSIS":"493.863","TLE_LINE2":"2 55755  70.0028  19.3632 0003245 269.0460  40.2566 15.23234573  1303","MEAN_ELEMENT_THEORY":"SGP4","DECAY_DATE":null,"OBJECT_NAME":"STARLINK-5619","OBJECT_TYPE":"PAYLOAD","REV_AT_EPOCH":"130","EPHEMERIS_TYPE":"0","SITE":"AFWTR","REF_FRAME":"TEME","BSTAR":"-0.04255100000000","ELEMENT_SET_NO":"999","EPOCH":"2023-04-21T22:00:00.999936","NORAD_CAT_ID":"55755","RA_OF_ASC_NODE":"19.3632","MEAN_ANOMALY":"40.2566","MEAN_MOTION_DDOT":"0.0000000000000","FILE":"3891716","APOAPSIS":"498.324","TIME_SYSTEM":"UTC","MEAN_MOTION":"15.23234573"},{"OBJECT_ID":"2023-028R","TLE_LINE2":"2 55756  70.0034  19.4626 0003127 268.1220 318.6442 15.25900051  1306","PERIAPSIS":"485.939","OBJECT_TYPE":"PAYLOAD","OBJECT_NAME":"STARLINK-5614","MEAN_ELEMENT_THEORY":"SGP4","DECAY_DATE":null,"EPHEMERIS_TYPE":"0","REV_AT_EPOCH":"130","LAUNCH_DATE":"2023-03-03","CENTER_NAME":"EARTH","PERIOD":"94.371","MEAN_MOTION_DOT":"-0.00928988","RCS_SIZE":"LARGE","CLASSIFICATION_TYPE":"U","COUNTRY_CODE":"US","TLE_LINE1":"1 55756U 23028R   23111.91667824 -.00928988  00000-0 -38988-1 0  9997","GP_ID":"230531607","SEMIMAJOR_AXIS":"6866.221","INCLINATION":"70.0034","ECCENTRICITY":"0.00031270","ARG_OF_PERICENTER":"268.1220","APOAPSIS":"490.233","FILE":"3891716","MEAN_MOTION_DDOT":"0.0000000000000","TIME_SYSTEM":"UTC","MEAN_MOTION":"15.25900051","REF_FRAME":"TEME","SITE":"AFWTR","NORAD_CAT_ID":"55756","EPOCH":"2023-04-21T22:00:00.999936","ELEMENT_SET_NO":"999","BSTAR":"-0.03898800000000","RA_OF_ASC_NODE":"19.4626","MEAN_ANOMALY":"318.6442"},{"RCS_SIZE":"LARGE","PERIOD":"94.441","MEAN_MOTION_DOT":"-0.00936603","LAUNCH_DATE":"2023-03-03","CENTER_NAME":"EARTH","ARG_OF_PERICENTER":"272.7072","ECCENTRICITY":"0.00030680","INCLINATION":"70.0032","TLE_LINE1":"1 55757U 23028S   23111.91667824 -.00936603  00000-0 -40702-1 0  9998","SEMIMAJOR_AXIS":"6869.631","GP_ID":"230501671","COUNTRY_CODE":"US","CLASSIFICATION_TYPE":"U","PERIAPSIS":"489.388","TLE_LINE2":"2 55757  70.0032  19.5330 0003068 272.7072 252.1438 15.24764191  8326","OBJECT_ID":"2023-028S","REV_AT_EPOCH":"832","EPHEMERIS_TYPE":"0","DECAY_DATE":null,"MEAN_ELEMENT_THEORY":"SGP4","OBJECT_NAME":"STARLINK-5544","OBJECT_TYPE":"PAYLOAD","ELEMENT_SET_NO":"999","BSTAR":"-0.04070200000000","NORAD_CAT_ID":"55757","EPOCH":"2023-04-21T22:00:00.999936","REF_FRAME":"TEME","SITE":"AFWTR","MEAN_ANOMALY":"252.1438","RA_OF_ASC_NODE":"19.5330","TIME_SYSTEM":"UTC","MEAN_MOTION_DDOT":"0.0000000000000","APOAPSIS":"493.603","FILE":"3891548","MEAN_MOTION":"15.24764191"},{"MEAN_MOTION":"15.25135469","TIME_SYSTEM":"UTC","FILE":"3891716","APOAPSIS":"492.491","MEAN_MOTION_DDOT":"0.0000000000000","MEAN_ANOMALY":"273.4972","RA_OF_ASC_NODE":"19.5097","EPOCH":"2023-04-21T22:00:00.999936","NORAD_CAT_ID":"55758","BSTAR":"-0.04020400000000","ELEMENT_SET_NO":"999","SITE":"AFWTR","REF_FRAME":"TEME","EPHEMERIS_TYPE":"0","REV_AT_EPOCH":"130","OBJECT_NAME":"STARLINK-5072","OBJECT_TYPE":"PAYLOAD","DECAY_DATE":null,"MEAN_ELEMENT_THEORY":"SGP4","TLE_LINE2":"2 55758  70.0034  19.5097 0003072 271.8454 273.4972 15.25135469  1309","PERIAPSIS":"488.271","OBJECT_ID":"2023-028T","INCLINATION":"70.0034","ECCENTRICITY":"0.00030720","ARG_OF_PERICENTER":"271.8454","CLASSIFICATION_TYPE":"U","GP_ID":"230531106","TLE_LINE1":"1 55758U 23028T   23111.91667824 -.00935603  00000-0 -40204-1 0  9995","SEMIMAJOR_AXIS":"6868.516","COUNTRY_CODE":"US","RCS_SIZE":"LARGE","LAUNCH_DATE":"2023-03-03","CENTER_NAME":"EARTH","PERIOD":"94.418","MEAN_MOTION_DOT":"-0.00935603"},{"MEAN_ELEMENT_THEORY":"SGP4","DECAY_DATE":null,"OBJECT_TYPE":"PAYLOAD","OBJECT_NAME":"STARLINK-5081","REV_AT_EPOCH":"840","EPHEMERIS_TYPE":"0","OBJECT_ID":"2023-028U","PERIAPSIS":"404.135","TLE_LINE2":"2 55759  69.9923  16.0823 0003192 267.5321 337.0166 15.53574906  8405","TLE_LINE1":"1 55759U 23028U   23111.91667824 -.00925175  00000-0 -15963-1 0  9993","GP_ID":"230501663","COUNTRY_CODE":"US","SEMIMAJOR_AXIS":"6784.435","CLASSIFICATION_TYPE":"U","ECCENTRICITY":"0.00031920","INCLINATION":"69.9923","ARG_OF_PERICENTER":"267.5321","PERIOD":"92.689","MEAN_MOTION_DOT":"-0.00925175","CENTER_NAME":"EARTH","LAUNCH_DATE":"2023-03-03","RCS_SIZE":"LARGE","MEAN_MOTION":"15.53574906","MEAN_MOTION_DDOT":"0.0000000000000","FILE":"3891548","APOAPSIS":"408.466","TIME_SYSTEM":"UTC","RA_OF_ASC_NODE":"16.0823","MEAN_ANOMALY":"337.0166","SITE":"AFWTR","REF_FRAME":"TEME","BSTAR":"-0.01596300000000","ELEMENT_SET_NO":"999","EPOCH":"2023-04-21T22:00:00.999936","NORAD_CAT_ID":"55759"},{"RA_OF_ASC_NODE":"19.4733","MEAN_ANOMALY":"306.2658","SITE":"AFWTR","REF_FRAME":"TEME","EPOCH":"2023-04-21T22:00:00.999936","NORAD_CAT_ID":"55760","BSTAR":"-0.03951300000000","ELEMENT_SET_NO":"999","MEAN_MOTION":"15.25723246","FILE":"3891716","APOAPSIS":"490.734","MEAN_MOTION_DDOT":"0.0000000000000","TIME_SYSTEM":"UTC","CLASSIFICATION_TYPE":"U","TLE_LINE1":"1 55760U 23028V   23111.91667824 -.00935936  00000-0 -39513-1 0  9998","GP_ID":"230532108","COUNTRY_CODE":"US","SEMIMAJOR_AXIS":"6866.752","INCLINATION":"70.0034","ARG_OF_PERICENTER":"270.7711","ECCENTRICITY":"0.00030840","LAUNCH_DATE":"2023-03-03","CENTER_NAME":"EARTH","MEAN_MOTION_DOT":"-0.00935936","PERIOD":"94.381","RCS_SIZE":"LARGE","OBJECT_TYPE":"PAYLOAD","OBJECT_NAME":"STARLINK-5532","DECAY_DATE":null,"MEAN_ELEMENT_THEORY":"SGP4","EPHEMERIS_TYPE":"0","REV_AT_EPOCH":"130","OBJECT_ID":"2023-028V","TLE_LINE2":"2 55760  70.0034  19.4733 0003084 270.7711 306.2658 15.25723246  1307","PERIAPSIS":"486.499"},{"EPOCH":"2023-04-21T21:05:08.856672","NORAD_CAT_ID":"55761","BSTAR":"0.00002755400000","ELEMENT_SET_NO":"999","SITE":"AFWTR","REF_FRAME":"TEME","MEAN_ANOMALY":"106.9950","RA_OF_ASC_NODE":"17.1025","TIME_SYSTEM":"UTC","FILE":"3891716","APOAPSIS":"361.455","MEAN_MOTION_DDOT":"0.0000000000000","MEAN_MOTION":"15.69921253","RCS_SIZE":"LARGE","LAUNCH_DATE":"2023-03-03","CENTER_NAME":"EARTH","MEAN_MOTION_DOT":"0.00003101","PERIOD":"91.724","ECCENTRICITY":"0.00034590","INCLINATION":"70.0022","ARG_OF_PERICENTER":"253.0867","CLASSIFICATION_TYPE":"U","SEMIMAJOR_AXIS":"6737.259","TLE_LINE1":"1 55761U 23028W   23111.87857473  .00003101  00000-0  27554-4 0  9998","GP_ID":"230530861","COUNTRY_CODE":"US","TLE_LINE2":"2 55761  70.0022  17.1025 0003459 253.0867 106.9950 15.69921253  8387","PERIAPSIS":"356.794","OBJECT_ID":"2023-028W","EPHEMERIS_TYPE":"0","REV_AT_EPOCH":"838","OBJECT_NAME":"STARLINK-5611","OBJECT_TYPE":"PAYLOAD","DECAY_DATE":null,"MEAN_ELEMENT_THEORY":"SGP4"},{"MEAN_MOTION":"15.69926881","TIME_SYSTEM":"UTC","MEAN_MOTION_DDOT":"0.0000000000000","APOAPSIS":"361.120","FILE":"3891529","MEAN_ANOMALY":"119.5665","RA_OF_ASC_NODE":"19.0673","ELEMENT_SET_NO":"999","BSTAR":"0.00000530280000","NORAD_CAT_ID":"55762","EPOCH":"2023-04-21T04:15:15.931872","REF_FRAME":"TEME","SITE":"AFWTR","REV_AT_EPOCH":"827","EPHEMERIS_TYPE":"0","DECAY_DATE":null,"MEAN_ELEMENT_THEORY":"SGP4","OBJECT_NAME":"STARLINK-5603","OBJECT_TYPE":"PAYLOAD","PERIAPSIS":"357.096","TLE_LINE2":"2 55762  69.9995  19.0673 0002986 240.5233 119.5665 15.69926881  8279","OBJECT_ID":"2023-028X","ECCENTRICITY":"0.00029860","ARG_OF_PERICENTER":"240.5233","INCLINATION":"69.9995","TLE_LINE1":"1 55762U 23028X   23111.17726773  .00000425  00000-0  53028-5 0  9992","GP_ID":"230500954","COUNTRY_CODE":"US","SEMIMAJOR_AXIS":"6737.243","CLASSIFICATION_TYPE":"U","RCS_SIZE":"LARGE","PERIOD":"91.724","MEAN_MOTION_DOT":"0.00000425","LAUNCH_DATE":"2023-03-03","CENTER_NAME":"EARTH"}];
